[{"OBJECT_NAME":"STARLINK-30043","OBJECT_ID":"2023-102P","EPOCH":"2026-03-09T22:00:01.999584","MEAN_MOTION":15.16913406,"ECCENTRICITY":0.00016842,"INCLINATION":43,"RA_OF_ASC_NODE":246.5874,"ARG_OF_PERICENTER":259.2585,"MEAN_ANOMALY":70.8182,"EPHEMERIS_TYPE":0,"CLASSIFICATION_TYPE":"U","NORAD_CAT_ID":57417,"ELEMENT_SET_NO":999,"REV_AT_EPOCH":538,"BSTAR":0.0056084196,"MEAN_MOTION_DOT":0.0011416,"MEAN_MOTION_DDOT":0},{"OBJECT_NAME":"FLOCK 4H-36","OBJECT_ID":"2025-276CB","EPOCH":"2026-03-09T17:10:47.526240","MEAN_MOTION":15.19196799,"ECCENTRICITY":0.00014584,"INCLINATION":97.4313,"RA_OF_ASC_NODE":144.1032,"ARG_OF_PERICENTER":333.1863,"MEAN_ANOMALY":26.9296,"EPHEMERIS_TYPE":0,"CLASSIFICATION_TYPE":"U","NORAD_CAT_ID":66739,"ELEMENT_SET_NO":999,"REV_AT_EPOCH":1532,"BSTAR":0.0003489892,"MEAN_MOTION_DOT":7.279e-5,"MEAN_MOTION_DDOT":0}]
